{"type":"FeatureCollection","features":[{"type":"Feature","properties":{"nombre":"México (silueta simplificada)","fuente":"PhantomInsights/mexico-geojson (CONABIO 2023, MIT), rasterizado y trazado","uso":"decorativo -- no usar para análisis ni como fuente de fronteras"},"geometry":{"type":"MultiPolygon","coordinates":[[[[-92.25,14.575],[-92.35,14.625],[-92.875,15.15],[-92.875,15.2],[-92.95,15.225],[-93.35,15.625],[-93.85,15.975],[-94.1,16.025],[-94.25,16.125],[-94.6,16.175],[-94.65,16.225],[-95.2,16.175],[-95.45,15.975],[-95.75,15.925],[-96.25,15.675],[-96.65,15.675],[-96.7,15.725],[-96.85,15.725],[-97.15,15.925],[-97.8,15.975],[-97.9,16.075],[-98.3,16.275],[-98.5,16.275],[-98.8,16.575],[-98.9,16.525],[-99.3,16.675],[-99.65,16.675],[-100.0,16.925],[-100.1,16.925],[-100.4,17.075],[-100.7,17.125],[-100.85,17.225],[-100.95,17.225],[-101.2,17.425],[-101.35,17.475],[-101.5,17.625],[-101.6,17.625],[-101.675,17.75],[-101.95,17.975],[-102.25,17.925],[-102.45,18.025],[-102.65,18.025],[-102.95,18.175],[-103.1,18.175],[-103.15,18.225],[-103.4,18.275],[-103.525,18.35],[-103.575,18.5],[-103.725,18.6],[-103.675,18.65],[-103.75,18.725],[-104.05,18.925],[-104.25,18.975],[-104.45,19.125],[-104.55,19.125],[-104.7,19.225],[-104.9,19.275],[-105.025,19.4],[-105.075,19.55],[-105.225,19.65],[-105.475,19.95],[-105.525,20.2],[-105.675,20.35],[-105.6,20.475],[-105.45,20.475],[-105.225,20.6],[-105.275,20.7],[-105.35,20.775],[-105.4,20.725],[-105.475,20.85],[-105.225,21.05],[-105.225,21.4],[-105.175,21.45],[-105.475,21.65],[-105.675,22.05],[-105.625,22.2],[-105.775,22.6],[-106.475,23.25],[-106.475,23.35],[-106.825,23.65],[-106.825,23.75],[-107.2,24.125],[-107.825,24.5],[-107.825,24.55],[-108.025,24.7],[-108.45,25.275],[-108.7,25.375],[-109.0,25.425],[-109.2,25.625],[-109.35,25.625],[-109.425,25.7],[-109.425,26.05],[-109.275,26.25],[-109.275,26.55],[-109.35,26.575],[-109.45,26.725],[-109.55,26.675],[-109.8,26.725],[-110.0,27.075],[-110.35,27.175],[-110.45,27.325],[-110.575,27.4],[-110.575,27.5],[-110.625,27.55],[-110.625,27.8],[-110.55,27.825],[-110.55,27.875],[-110.65,27.925],[-110.9,27.925],[-110.95,27.875],[-111.0,27.975],[-111.05,27.925],[-111.15,27.975],[-111.55,28.425],[-111.65,28.425],[-111.775,28.6],[-111.925,28.7],[-111.925,28.8],[-112.175,29.0],[-112.225,29.3],[-112.425,29.35],[-112.375,29.5],[-112.575,29.7],[-112.625,29.85],[-112.725,29.95],[-112.775,30.05],[-112.775,30.25],[-112.875,30.45],[-113.125,30.75],[-113.125,30.85],[-113.075,30.9],[-113.125,31.0],[-113.075,31.05],[-113.075,31.15],[-113.3,31.275],[-113.55,31.275],[-113.675,31.5],[-113.9,31.625],[-113.95,31.625],[-114.05,31.475],[-114.15,31.475],[-114.35,31.625],[-114.45,31.625],[-114.55,31.725],[-114.65,31.725],[-114.7,31.775],[-114.725,31.75],[-114.675,31.7],[-114.75,31.675],[-114.8,31.775],[-114.825,31.7],[-114.775,31.65],[-114.875,31.55],[-114.875,31.1],[-114.825,31.0],[-114.725,30.95],[-114.725,30.85],[-114.675,30.8],[-114.725,30.7],[-114.625,30.5],[-114.625,30.35],[-114.675,30.3],[-114.625,30.25],[-114.675,30.2],[-114.575,30.1],[-114.575,30.0],[-114.475,29.95],[-114.3,29.725],[-114.25,29.775],[-113.625,29.25],[-113.625,29.15],[-113.525,29.05],[-113.575,28.95],[-113.5,28.875],[-113.45,28.975],[-113.35,28.825],[-113.25,28.825],[-113.175,28.75],[-113.125,28.55],[-113.05,28.475],[-112.875,28.45],[-112.875,28.3],[-112.775,28.2],[-112.825,28.15],[-112.775,27.85],[-112.55,27.625],[-112.325,27.5],[-112.225,27.25],[-112.1,27.125],[-111.975,27.1],[-112.025,27.0],[-111.95,26.875],[-111.875,26.85],[-111.875,26.65],[-111.75,26.575],[-111.675,26.6],[-111.825,26.75],[-111.8,26.875],[-111.575,26.7],[-111.575,26.55],[-111.475,26.5],[-111.475,26.4],[-111.375,26.3],[-111.375,26.15],[-111.325,26.1],[-111.325,26.0],[-111.375,25.95],[-111.325,25.9],[-111.325,25.8],[-111.125,25.55],[-111.025,25.5],[-111.025,25.4],[-110.925,25.3],[-110.925,25.15],[-110.675,24.85],[-110.725,24.5],[-110.625,24.25],[-110.35,24.125],[-110.325,24.3],[-110.25,24.325],[-110.075,24.2],[-109.95,24.025],[-109.85,24.075],[-109.825,23.9],[-109.725,23.85],[-109.675,23.65],[-109.475,23.55],[-109.425,23.45],[-109.425,23.25],[-109.475,23.15],[-109.65,23.075],[-109.9,22.875],[-110.0,22.875],[-110.125,23.05],[-110.125,23.2],[-110.225,23.45],[-110.4,23.625],[-110.6,23.675],[-111.05,24.125],[-111.2,24.175],[-111.4,24.325],[-111.5,24.325],[-111.65,24.525],[-111.75,24.525],[-111.825,24.6],[-111.95,24.775],[-112.0,24.725],[-112.1,24.775],[-112.1,24.925],[-112.225,24.85],[-112.175,24.8],[-112.2,24.775],[-112.325,24.8],[-112.2,25.025],[-112.15,24.975],[-112.075,25.0],[-112.175,25.1],[-112.125,25.15],[-112.175,25.2],[-112.075,25.25],[-112.075,25.4],[-112.125,25.45],[-112.075,25.5],[-112.075,25.7],[-112.125,25.75],[-112.125,25.85],[-112.45,26.275],[-112.5,26.225],[-112.7,26.325],[-112.85,26.475],[-113.0,26.525],[-113.125,26.65],[-113.15,26.775],[-113.175,26.7],[-113.225,26.7],[-113.225,26.8],[-113.125,26.85],[-113.15,26.975],[-113.3,26.775],[-113.45,26.825],[-113.55,26.725],[-113.65,26.725],[-113.85,26.975],[-114.0,26.975],[-114.15,27.125],[-114.4,27.175],[-114.475,27.25],[-114.475,27.35],[-114.6,27.475],[-114.75,27.525],[-114.85,27.675],[-115.025,27.75],[-115.0,27.825],[-114.45,27.775],[-114.3,27.875],[-114.325,27.75],[-114.15,27.675],[-114.1,27.575],[-113.95,27.675],[-113.925,27.7],[-114.0,27.775],[-114.1,27.725],[-114.175,27.8],[-114.15,27.925],[-114.275,27.95],[-114.15,28.075],[-114.1,28.025],[-114.025,28.1],[-114.125,28.25],[-114.025,28.45],[-114.175,28.65],[-114.25,28.675],[-114.45,28.925],[-114.5,28.925],[-114.95,29.375],[-115.15,29.425],[-115.25,29.525],[-115.6,29.675],[-115.675,29.75],[-115.675,29.85],[-115.775,29.95],[-115.775,30.1],[-115.825,30.15],[-115.775,30.25],[-115.95,30.475],[-116.025,30.5],[-116.025,30.75],[-116.325,31.0],[-116.325,31.2],[-116.475,31.4],[-116.675,31.55],[-116.625,31.85],[-116.875,32.0],[-116.875,32.15],[-117.075,32.35],[-117.125,32.5],[-116.95,32.525],[-116.9,32.575],[-116.35,32.575],[-116.3,32.625],[-115.7,32.625],[-115.65,32.675],[-115.0,32.675],[-114.95,32.725],[-114.75,32.725],[-114.725,32.7],[-114.825,32.6],[-114.775,32.55],[-114.825,32.5],[-114.8,32.475],[-114.7,32.475],[-114.5,32.375],[-114.35,32.375],[-114.0,32.225],[-113.85,32.225],[-113.8,32.175],[-113.7,32.175],[-113.2,31.975],[-113.05,31.975],[-112.55,31.775],[-112.4,31.775],[-112.35,31.725],[-112.25,31.725],[-111.75,31.525],[-111.6,31.525],[-111.1,31.325],[-108.25,31.325],[-108.2,31.775],[-106.45,31.775],[-106.15,31.425],[-105.95,31.375],[-105.925,31.3],[-105.65,31.125],[-105.55,30.975],[-105.25,30.775],[-105.15,30.775],[-104.875,30.55],[-104.875,30.4],[-104.675,30.2],[-104.675,30.1],[-104.725,30.05],[-104.675,30.0],[-104.675,29.9],[-104.575,29.8],[-104.5,29.625],[-104.35,29.525],[-104.25,29.525],[-104.15,29.375],[-103.95,29.275],[-103.8,29.275],[-103.7,29.175],[-103.6,29.175],[-103.4,29.025],[-103.15,28.975],[-103.025,29.15],[-102.875,29.25],[-102.825,29.5],[-102.725,29.65],[-102.6,29.775],[-102.55,29.725],[-102.5,29.775],[-102.4,29.775],[-102.35,29.875],[-102.25,29.875],[-102.1,29.775],[-102.0,29.825],[-101.95,29.775],[-101.85,29.825],[-101.8,29.775],[-101.6,29.775],[-101.55,29.825],[-101.45,29.775],[-101.25,29.525],[-101.1,29.475],[-100.675,29.1],[-100.625,29.0],[-100.675,28.95],[-100.525,28.8],[-100.525,28.7],[-100.425,28.55],[-100.325,28.5],[-100.275,28.25],[-100.2,28.175],[-100.075,28.15],[-100.075,28.1],[-99.875,27.9],[-99.875,27.8],[-99.8,27.725],[-99.525,27.6],[-99.525,27.5],[-99.475,27.45],[-99.525,27.35],[-99.425,27.25],[-99.425,27.0],[-99.275,26.85],[-99.1,26.425],[-99.0,26.375],[-98.8,26.375],[-98.75,26.275],[-98.65,26.225],[-98.6,26.275],[-98.55,26.225],[-98.45,26.225],[-98.25,26.075],[-98.1,26.075],[-98.05,26.025],[-98.0,26.075],[-97.8,26.075],[-97.75,26.025],[-97.65,26.025],[-97.5,25.875],[-97.4,25.875],[-97.2,25.975],[-97.125,25.95],[-97.175,25.65],[-97.325,25.45],[-97.575,24.95],[-97.575,24.8],[-97.675,24.6],[-97.675,24.4],[-97.725,24.35],[-97.775,22.8],[-97.875,22.6],[-97.775,22.1],[-97.675,21.9],[-97.325,21.55],[-97.425,21.35],[-97.425,21.2],[-97.225,20.85],[-97.175,20.65],[-96.525,19.95],[-96.375,19.65],[-96.325,19.35],[-96.075,19.15],[-96.125,19.1],[-96.0,19.075],[-95.925,18.9],[-95.65,18.725],[-95.2,18.725],[-95.0,18.575],[-94.8,18.525],[-94.625,18.3],[-94.6,18.175],[-94.2,18.175],[-94.0,18.275],[-93.85,18.275],[-93.55,18.425],[-92.9,18.425],[-92.775,18.5],[-92.7,18.625],[-92.5,18.625],[-92.45,18.675],[-91.95,18.675],[-91.9,18.625],[-91.85,18.675],[-91.7,18.675],[-91.5,18.775],[-91.35,18.925],[-90.95,19.125],[-90.725,19.35],[-90.725,19.55],[-90.675,19.6],[-90.725,19.65],[-90.675,19.75],[-90.475,19.9],[-90.475,20.45],[-90.525,20.5],[-90.425,20.65],[-90.425,20.85],[-90.325,21.0],[-90.1,21.175],[-90.0,21.175],[-89.8,21.275],[-89.6,21.275],[-89.55,21.325],[-88.85,21.375],[-88.8,21.425],[-88.7,21.425],[-88.6,21.525],[-88.5,21.525],[-88.45,21.575],[-88.2,21.575],[-88.15,21.625],[-87.95,21.625],[-87.8,21.525],[-87.6,21.525],[-87.35,21.425],[-87.2,21.425],[-87.1,21.575],[-86.95,21.525],[-86.775,21.15],[-86.775,21.05],[-87.025,20.65],[-87.225,20.5],[-87.425,20.25],[-87.475,20.15],[-87.475,19.85],[-87.725,19.65],[-87.65,19.525],[-87.45,19.625],[-87.425,19.5],[-87.675,19.3],[-87.65,19.175],[-87.625,19.25],[-87.55,19.275],[-87.525,19.15],[-87.725,18.7],[-87.825,18.2],[-87.9,18.125],[-88.025,18.2],[-88.05,18.425],[-88.5,18.475],[-88.725,18.05],[-88.85,17.925],[-89.1,17.975],[-89.2,17.825],[-90.95,17.825],[-90.975,17.3],[-91.425,17.25],[-91.275,17.15],[-91.05,16.875],[-90.95,16.875],[-90.85,16.775],[-90.7,16.725],[-90.625,16.5],[-90.4,16.425],[-90.375,16.35],[-90.475,16.25],[-90.5,16.075],[-91.7,16.075],[-91.825,15.95],[-91.875,15.8],[-91.975,15.7],[-92.075,15.45],[-92.225,15.25],[-92.075,15.1],[-92.075,15.05],[-92.175,14.85],[-92.175,14.75],[-92.125,14.7],[-92.175,14.6],[-92.25,14.575]]],[[[-87.0,20.275],[-87.025,20.4],[-86.975,20.5],[-86.9,20.575],[-86.75,20.575],[-86.725,20.55],[-86.875,20.35],[-87.0,20.275]]],[[[-89.65,22.375],[-89.725,22.45],[-89.75,22.575],[-89.625,22.5],[-89.65,22.375]]],[[[-111.8,24.375],[-111.975,24.5],[-111.85,24.525],[-111.725,24.4],[-111.8,24.375]]],[[[-115.25,28.025],[-115.375,28.1],[-115.225,28.25],[-115.275,28.3],[-115.2,28.375],[-115.175,28.05],[-115.25,28.025]]],[[[-112.4,28.775],[-112.525,28.85],[-112.475,28.95],[-112.525,29.05],[-112.45,29.175],[-112.3,29.225],[-112.225,29.1],[-112.225,28.9],[-112.3,28.775],[-112.4,28.775]]],[[[-118.25,28.875],[-118.375,29.1],[-118.35,29.175],[-118.275,29.15],[-118.225,29.05],[-118.25,28.875]]],[[[-113.2,29.025],[-113.525,29.3],[-113.575,29.4],[-113.55,29.525],[-113.45,29.525],[-113.375,29.45],[-113.35,29.275],[-113.175,29.25],[-113.175,29.1],[-113.125,29.05],[-113.2,29.025]]]]}}]}